STARLINK-1128_new
1 14931C 20001T   21326.16787881  .00061450  00000-0  40216-2 0  3269
2 14931  53.0538 187.9678 0001404  73.9317 153.4169 15.07204673    17
STARLINK-1128_old
1 24931C 20001T   21325.09380002  .00044735  00000-0  29413-2 0  3256
2 24931  53.0538 192.7948 0001384  73.9737  82.6791 15.07051151    19
